STARLINK-1970
1 27571C 21009Z   21325.14653288  .00010454  00000-0  70040-3 0  3257
2 27571  53.0546 217.5774 0001982  66.9664  91.8804 15.06390034    11
